NORAD_CAT_ID,OBJECT_NAME,OBJECT_TYPE,EPOCH,MEAN_MOTION,ECCENTRICITY,INCLINATION,RA_OF_ASC_NODE,ARG_OF_PERICENTER,MEAN_ANOMALY,BSTAR,MEAN_MOTION_DOT,MEAN_MOTION_DDOT,TLE_LINE0,TLE_LINE1,TLE_LINE2,SEMIMAJOR_AXIS,PERIOD,APOGEE,PERIGEE,DECAYED
55422.0,STARLINK-5006,PAYLOAD,2024-06-12 06:06:42,14.98329139,0.000293,69.9996,246.4659,268.78,91.3024,-4.9942e-05,-6.89e-06,0.0,0 STARLINK-5006,1 55422U 23014AH  24164.25465841 -.00000689  00000-0 -49942-4 0  9997,2 55422  69.9996 246.4659 0002930 268.7800  91.3024 14.98329139 76381,6950.196,96.107,574.097,570.024,0.0
55422.0,STARLINK-5006,PAYLOAD,2024-06-12 12:31:14,14.98325143,0.0002861,69.9999,245.7931,265.7229,94.3603,-5.1077e-05,-7.02e-06,0.0,0 STARLINK-5006,1 55422U 23014AH  24164.52170070 -.00000702  00000-0 -51077-4 0  9992,2 55422  69.9999 245.7931 0002861 265.7229  94.3603 14.98325143 75481,6950.208,96.107,574.061,570.084,0.0
55422.0,STARLINK-5006,PAYLOAD,2024-06-12 15:43:31,14.98323046,0.0002903,69.9997,245.4567,265.0746,95.0082,-8.2829e-05,-1.081e-05,0.0,0 STARLINK-5006,1 55422U 23014AH  24164.65522315 -.00001081  00000-0 -82829-4 0  9999,2 55422  69.9997 245.4567 0002903 265.0746  95.0082 14.98323046 76441,6950.214,96.107,574.097,570.062,0.0
55422.0,STARLINK-5006,PAYLOAD,2024-06-13 04:32:36,14.98250301,0.0003257,69.9995,244.111,261.3337,98.7453,0.0014582,0.00017313,0.0,0 STARLINK-5006,1 55422U 23014AH  24165.18930630  .00017313  00000-0  14582-2 0  9993,2 55422  69.9995 244.1110 0003257 261.3337  98.7453 14.98250301 75586,6950.439,96.112,574.568,570.041,0.0
55422.0,STARLINK-5006,PAYLOAD,2024-06-13 12:33:15,14.98334023,0.0003032,69.9995,243.2695,266.8065,93.2747,2.242e-05,1.75e-06,0.0,0 STARLINK-5006,1 55422U 23014AH  24165.52309259  .00000175  00000-0  22420-4 0  9998,2 55422  69.9995 243.2695 0003032 266.8065  93.2747 14.98334023 75639,6950.18,96.107,574.153,569.938,0.0
55422.0,STARLINK-5006,PAYLOAD,2024-06-13 14:09:23,14.9833506,0.000302,69.9996,243.1012,266.7387,93.3427,3.4058e-05,3.13e-06,0.0,0 STARLINK-5006,1 55422U 23014AH  24165.58985143  .00000313  00000-0  34058-4 0  9990,2 55422  69.9996 243.1012 0003020 266.7387  93.3427 14.98335060 76588,6950.177,96.107,574.141,569.943,0.0
55422.0,STARLINK-5006,PAYLOAD,2024-06-13 15:45:31,14.98335238,0.0003025,69.9995,242.9329,266.9156,93.1657,3.5596e-05,3.32e-06,0.0,0 STARLINK-5006,1 55422U 23014AH  24165.65661109  .00000332  00000-0  35596-4 0  9990,2 55422  69.9995 242.9329 0003025 266.9156  93.1657 14.98335238 76597,6950.177,96.107,574.144,569.939,0.0
55422.0,STARLINK-5006,PAYLOAD,2024-06-14 14:11:24,14.98325464,0.0003114,69.9995,240.5757,272.6473,87.433,8.6656e-05,9.41e-06,0.0,0 STARLINK-5006,1 55422U 23014AH  24166.59125709  .00000941  00000-0  86656-4 0  9994,2 55422  69.9995 240.5757 0003114 272.6473  87.4330 14.98325464 76731,6950.207,96.107,574.236,569.908,0.0
55422.0,STARLINK-5006,PAYLOAD,2024-06-15 14:13:24,14.98338071,0.0003123,69.9994,238.0506,271.1469,88.9332,4.8698e-05,4.88e-06,0.0,0 STARLINK-5006,1 55422U 23014AH  24167.59264786  .00000488  00000-0  48698-4 0  9994,2 55422  69.9994 238.0506 0003123 271.1469  88.9332 14.98338071 76885,6950.168,96.106,574.203,569.862,0.0
55422.0,STARLINK-5006,PAYLOAD,2024-06-15 22:14:05,14.98332028,0.0003146,69.9993,237.2091,264.8778,95.2022,2.9861e-05,2.63e-06,0.0,0 STARLINK-5006,1 55422U 23014AH  24167.92645055  .00000263  00000-0  29861-4 0  9995,2 55422  69.9993 237.2091 0003146 264.8778  95.2022 14.98332028 76930,6950.187,96.107,574.238,569.865,0.0
55422.0,STARLINK-5006,PAYLOAD,2024-06-16 14:15:25,14.98331243,0.0003175,69.999,235.5242,268.3268,91.7528,3.376e-05,3.1e-06,0.0,0 STARLINK-5006,1 55422U 23014AH  24168.59405021  .00000310  00000-0  33760-4 0  9992,2 55422  69.9990 235.5242 0003175 268.3268  91.7528 14.98331243 77033,6950.189,96.107,574.261,569.847,0.0
55422.0,STARLINK-5006,PAYLOAD,2024-06-16 22:16:06,14.98331908,0.0003157,69.9991,234.6825,268.306,91.7737,3.2663e-06,-5.4e-07,0.0,0 STARLINK-5006,1 55422U 23014AH  24168.92785014 -.00000054  00000-0  32663-5 0  9990,2 55422  69.9991 234.6825 0003157 268.3060  91.7737 14.98331908 77086,6950.187,96.107,574.246,569.858,0.0
55422.0,STARLINK-5006,PAYLOAD,2024-06-17 11:05:10,14.98331263,0.0003148,69.9991,233.336,268.1146,91.9652,-5.3433e-05,-7.31e-06,0.0,0 STARLINK-5006,1 55422U 23014AH  24169.46193211 -.00000731  00000-0 -53433-4 0  9992,2 55422  69.9991 233.3360 0003148 268.1146  91.9652 14.98331263 77160,6950.189,96.107,574.242,569.866,0.0
55422.0,STARLINK-5006,PAYLOAD,2024-06-18 12:43:19,14.98331043,0.0003283,69.9987,230.6437,268.8447,91.2336,2.0871e-05,1.56e-06,0.0,0 STARLINK-5006,1 55422U 23014AH  24170.53008961  .00000156  00000-0  20871-4 0  9998,2 55422  69.9987 230.6437 0003283 268.8447  91.2336 14.98331043 76382,6950.19,96.107,574.336,569.773,0.0
55422.0,STARLINK-5006,PAYLOAD,2024-06-18 14:19:27,14.98331043,0.0003284,69.9987,230.4754,268.8634,91.2149,2.0713e-05,1.54e-06,0.0,0 STARLINK-5006,1 55422U 23014AH  24170.59684958  .00000154  00000-0  20713-4 0  9993,2 55422  69.9987 230.4754 0003284 268.8634  91.2149 14.98331043 77339,6950.19,96.107,574.337,569.772,0.0
55422.0,STARLINK-5006,PAYLOAD,2024-06-19 12:45:20,14.98328455,0.0003259,69.9986,228.1186,271.3693,88.7093,5.5553e-05,5.7e-06,0.0,0 STARLINK-5006,1 55422U 23014AH  24171.53149109  .00000570  00000-0  55553-4 0  9994,2 55422  69.9986 228.1186 0003259 271.3693  88.7093 14.98328455 76530,6950.198,96.107,574.328,569.798,0.0
55422.0,STARLINK-5006,PAYLOAD,2024-06-20 12:47:21,14.98330745,0.0003268,69.9985,225.5939,269.8914,90.187,3.0714e-05,2.73e-06,0.0,0 STARLINK-5006,1 55422U 23014AH  24172.53289012  .00000273  00000-0  30714-4 0  9995,2 55422  69.9985 225.5939 0003268 269.8914  90.1870 14.98330745 77620,6950.191,96.107,574.327,569.784,0.0
55422.0,STARLINK-5006,PAYLOAD,2024-06-21 12:49:22,14.98330937,0.0003289,69.9985,223.069,270.4413,89.6369,2.0917e-05,1.57e-06,0.0,0 STARLINK-5006,1 55422U 23014AH  24173.53428974  .00000157  00000-0  20917-4 0  9993,2 55422  69.9985 223.0690 0003289 270.4413  89.6369 14.98330937 76833,6950.19,96.107,574.341,569.769,0.0
55422.0,STARLINK-5006,PAYLOAD,2024-06-22 12:51:23,14.98328207,0.0003315,69.9987,220.5446,270.0355,90.0424,-9.8119e-06,-2.1e-06,0.0,0 STARLINK-5006,1 55422U 23014AH  24174.53569242 -.00000210  00000-0 -98119-5 0  9990,2 55422  69.9987 220.5446 0003315 270.0355  90.0424 14.98328207 76988,6950.198,96.107,574.367,569.759,0.0
55422.0,STARLINK-5006,PAYLOAD,2024-06-23 04:52:43,14.98333526,0.0003387,69.9985,218.8604,270.2023,89.8747,7.3123e-05,7.8e-06,0.0,0 STARLINK-5006,1 55422U 23014AH  24175.20328568  .00000780  00000-0  73123-4 0  9996,2 55422  69.9985 218.8604 0003387 270.2023  89.8747 14.98333526 77081,6950.182,96.107,574.401,569.693,0.0
55422.0,STARLINK-5006,PAYLOAD,2024-06-23 12:53:23,14.98336631,0.0003441,69.9984,218.0188,270.4768,89.5996,7.1896e-05,7.65e-06,0.0,0 STARLINK-5006,1 55422U 23014AH  24175.53708275  .00000765  00000-0  71896-4 0  9997,2 55422  69.9984 218.0188 0003441 270.4768  89.5996 14.98336631 78071,6950.172,96.107,574.429,569.646,0.0
55422.0,STARLINK-5006,PAYLOAD,2024-06-24 04:54:44,14.98331267,0.0003405,69.9987,216.3354,268.5781,91.4988,4.4162e-05,4.34e-06,0.0,0 STARLINK-5006,1 55422U 23014AH  24176.20468529  .00000434  00000-0  44162-4 0  9996,2 55422  69.9987 216.3354 0003405 268.5781  91.4988 14.98331267 77233,6950.189,96.107,574.421,569.687,0.0
55422.0,STARLINK-5006,PAYLOAD,2024-06-24 12:55:25,14.98330921,0.0003437,69.999,215.4942,269.847,90.2295,3.1606e-05,2.84e-06,0.0,0 STARLINK-5006,1 55422U 23014AH  24176.53848563  .00000284  00000-0  31606-4 0  9994,2 55422  69.9990 215.4942 0003437 269.8470  90.2295 14.98330921 78228,6950.19,96.107,574.444,569.666,0.0
55422.0,STARLINK-5006,PAYLOAD,2024-06-25 04:56:45,14.98330574,0.000333,69.9994,213.8112,271.132,88.9457,-4.766e-05,-6.62e-06,0.0,0 STARLINK-5006,1 55422U 23014AH  24177.20608769 -.00000662  00000-0 -47660-4 0  9990,2 55422  69.9994 213.8112 0003330 271.1320  88.9457 14.98330574 77389,6950.191,96.107,574.371,569.742,0.0
55422.0,STARLINK-5006,PAYLOAD,2024-06-25 12:57:26,14.98329055,0.000336,69.9995,212.9697,271.0143,89.0631,-6.0368e-05,-8.13e-06,0.0,0 STARLINK-5006,1 55422U 23014AH  24177.53988899 -.00000813  00000-0 -60368-4 0  9999,2 55422  69.9995 212.9697 0003360 271.0143  89.0631 14.98329055 78371,6950.196,96.107,574.396,569.726,0.0
55422.0,STARLINK-5006,PAYLOAD,2024-06-26 11:23:18,14.98332359,0.0003444,69.9994,210.6135,266.815,93.2615,3.3868e-05,3.11e-06,0.0,0 STARLINK-5006,1 55422U 23014AH  24178.47452302  .00000311  00000-0  33868-4 0  9994,2 55422  69.9994 210.6135 0003444 266.8150  93.2615 14.98332359 77576,6950.186,96.107,574.444,569.657,0.0
55422.0,STARLINK-5006,PAYLOAD,2024-06-27 11:25:19,14.98328287,0.0003489,69.9992,208.0885,265.3323,94.7437,3.6983e-05,3.48e-06,0.0,0 STARLINK-5006,1 55422U 23014AH  24179.47592582  .00000348  00000-0  36983-4 0  9991,2 55422  69.9992 208.0885 0003489 265.3323  94.7437 14.98328287 77722,6950.198,96.107,574.488,569.638,0.0
55422.0,STARLINK-5006,PAYLOAD,2024-06-28 11:27:20,14.98332413,0.0003526,69.9991,205.5633,268.9411,91.1344,1.1781e-05,4.7e-07,0.0,0 STARLINK-5006,1 55422U 23014AH  24180.47732417  .00000047  00000-0  11781-4 0  9991,2 55422  69.9991 205.5633 0003526 268.9411  91.1344 14.98332413 77873,6950.185,96.107,574.501,569.6,0.0
55422.0,STARLINK-5006,PAYLOAD,2024-06-29 11:29:21,14.98332185,0.0003582,69.9988,203.0381,269.198,90.8769,5.4954e-05,5.63e-06,0.0,0 STARLINK-5006,1 55422U 23014AH  24181.47872245  .00000563  00000-0  54954-4 0  9998,2 55422  69.9988 203.0381 0003582 269.1980  90.8769 14.98332185 78029,6950.186,96.107,574.541,569.562,0.0
55422.0,STARLINK-5006,PAYLOAD,2024-06-30 09:55:14,14.98328106,0.000355,69.9988,200.682,269.0042,91.071,-7.2621e-06,-1.8e-06,0.0,0 STARLINK-5006,1 55422U 23014AH  24182.41336705 -.00000180  00000-0 -72621-5 0  9998,2 55422  69.9988 200.6820 0003550 269.0042  91.0710 14.98328106 78165,6950.199,96.107,574.531,569.596,0.0
